LANDSAT 9               
1 49260U 21088A   24047.76363866  .00000822  00000+0  19243-3 0  9995
2 49260  98.2012 119.3701 0001104 109.1709 250.9609 14.57131450127013
